{
    "links": {
        "self": "http://www.neowsapp.com/rest/v1/neo/3698488?api_key=iIulBulltgU6a56xZRHN4H3l9WmuAYTsLGpBGhQ2"
    },
    "id": "3698488",
    "neo_reference_id": "3698488",
    "name": "(2014 HH196)",
    "designation": "2014 HH196",
    "nasa_jpl_url": "http://ssd.jpl.nasa.gov/sbdb.cgi?sstr=3698488",
    "absolute_magnitude_h": 28.2,
    "estimated_diameter": {
        "kilometers": {
            "estimated_diameter_min": 0.0060891262,
            "estimated_diameter_max": 0.0136157002
        },
        "meters": {
            "estimated_diameter_min": 6.0891262211,
            "estimated_diameter_max": 13.6157001539
        },
        "miles": {
            "estimated_diameter_min": 0.0037836064,
            "estimated_diameter_max": 0.0084604012
        },
        "feet": {
            "estimated_diameter_min": 19.9774488711,
            "estimated_diameter_max": 44.6709336928
        }
    },
    "is_potentially_hazardous_asteroid": false,
    "close_approach_data": [
        {
            "close_approach_date": "2014-05-05",
            "close_approach_date_full": "2014-May-05 23:23",
            "epoch_date_close_approach": 1399332180000,
            "relative_velocity": {
                "kilometers_per_second": "12.2494593181",
                "kilometers_per_hour": "44098.0535452612",
                "miles_per_hour": "27400.8155487207"
            },
            "miss_distance": {
                "astronomical": "0.0113544415",
                "lunar": "4.4168777435",
                "kilometers": "1698600.263439605",
                "miles": "1055461.261312349"
            },
            "orbiting_body": "Earth"
        },
        {
            "close_approach_date": "2014-05-05",
            "close_approach_date_full": "2014-May-05 23:53",
            "epoch_date_close_approach": 1399333980000,
            "relative_velocity": {
                "kilometers_per_second": "13.2136422787",
                "kilometers_per_hour": "47569.112203356",
                "miles_per_hour": "29557.5964132464"
            },
            "miss_distance": {
                "astronomical": "0.0090782505",
                "lunar": "3.5314394445",
                "kilometers": "1358086.938126435",
                "miles": "843876.092297403"
            },
            "orbiting_body": "Moon"
        }
    ],
    "orbital_data": {
        "orbit_id": "7",
        "orbit_determination_date": "2019-12-18 11:21:06",
        "first_observation_date": "2014-04-23",
        "last_observation_date": "2014-04-25",
        "data_arc_in_days": 2,
        "observations_used": 22,
        "orbit_uncertainty": "9",
        "minimum_orbit_intersection": ".00641781",
        "jupiter_tisserand_invariant": "4.653",
        "epoch_osculation": "2456771.5",
        "eccentricity": ".4413584246138986",
        "semi_major_axis": "1.397439556819558",
        "inclination": ".909759966735045",
        "ascending_node_longitude": "247.9594218709709",
        "orbital_period": "603.389815648605",
        "perihelion_distance": ".7806678355285334",
        "perihelion_argument": "51.26495275359137",
        "aphelion_distance": "2.014211278110583",
        "perihelion_time": "2456835.681993325582",
        "mean_anomaly": "321.7071468593275",
        "mean_motion": ".5966292281765202",
        "equinox": "J2000",
        "orbit_class": {
            "orbit_class_type": "APO",
            "orbit_class_description": "Near-Earth asteroid orbits which cross the Earth’s orbit similar to that of 1862 Apollo",
            "orbit_class_range": "a (semi-major axis) > 1.0 AU; q (perihelion) < 1.017 AU"
        }
    },
    "is_sentry_object": false
}